start=new Date('2022-09-25T00:00:00.000Z').valueOf();
sats=[{"RA_OF_ASC_NODE":"234.8332","GP_ID":"213406808","NORAD_CAT_ID":"51714","EPHEMERIS_TYPE":"0","RCS_SIZE":"LARGE","MEAN_MOTION_DDOT":"0.0000000000000","APOAPSIS":"540.946","OBJECT_ID":"2022-016A","ELEMENT_SET_NO":"999","COUNTRY_CODE":"US","INCLINATION":"53.2166","DECAY_DATE":null,"REF_FRAME":"TEME","ECCENTRICITY":"0.00017320","TLE_LINE2":"2 51714  53.2166 234.8332 0001732  60.7668 299.3497 15.08839309 32895","FILE":"3582616","TIME_SYSTEM":"UTC","SEMIMAJOR_AXIS":"6917.883","MEAN_MOTION_DOT":"0.00001743","REV_AT_EPOCH":"3289","OBJECT_NAME":"STARLINK-3528","TLE_LINE1":"1 51714U 22016A   22267.60854832  .00001743  00000-0  12760-3 0  9998","EPOCH":"2022-09-24T14:36:18.574848","LAUNCH_DATE":"2022-02-21","OBJECT_TYPE":"PAYLOAD","MEAN_MOTION":"15.08839309","CLASSIFICATION_TYPE":"U","BSTAR":"0.00012760000000","SITE":"AFETR","PERIAPSIS":"538.549","MEAN_ELEMENT_THEORY":"SGP4","PERIOD":"95.438","ARG_OF_PERICENTER":"60.7668","CENTER_NAME":"EARTH","MEAN_ANOMALY":"299.3497"},{"SITE":"AFETR","CENTER_NAME":"EARTH","PERIOD":"95.438","ARG_OF_PERICENTER":"48.2196","MEAN_ELEMENT_THEORY":"SGP4","MEAN_ANOMALY":"311.8960","PERIAPSIS":"538.417","LAUNCH_DATE":"2022-02-21","TLE_LINE1":"1 51715U 22016B   22267.20007129  .00000048  00000-0  21091-4 0  9999","EPOCH":"2022-09-24T04:48:06.159456","OBJECT_NAME":"STARLINK-3533","BSTAR":"0.00002109100000","CLASSIFICATION_TYPE":"U","MEAN_MOTION":"15.08839865","OBJECT_TYPE":"PAYLOAD","REV_AT_EPOCH":"3396","MEAN_MOTION_DOT":"0.00000048","TLE_LINE2":"2 51715  53.2177 236.6703 0001921  48.2196 311.8960 15.08839865 33968","FILE":"3582561","ECCENTRICITY":"0.00019210","SEMIMAJOR_AXIS":"6917.881","TIME_SYSTEM":"UTC","DECAY_DATE":null,"REF_FRAME":"TEME","OBJECT_ID":"2022-016B","ELEMENT_SET_NO":"999","APOAPSIS":"541.075","MEAN_MOTION_DDOT":"0.0000000000000","INCLINATION":"53.2177","COUNTRY_CODE":"US","NORAD_CAT_ID":"51715","GP_ID":"213381805","RCS_SIZE":"LARGE","EPHEMERIS_TYPE":"0","RA_OF_ASC_NODE":"236.6703"},{"MEAN_MOTION":"15.08834007","OBJECT_TYPE":"PAYLOAD","BSTAR":"0.00001736700000","CLASSIFICATION_TYPE":"U","TLE_LINE1":"1 51716U 22016C   22267.60487604 -.00000012  00000-0  17367-4 0  9997","EPOCH":"2022-09-24T14:31:01.289856","OBJECT_NAME":"STARLINK-3543","LAUNCH_DATE":"2022-02-21","PERIAPSIS":"538.662","PERIOD":"95.438","CENTER_NAME":"EARTH","ARG_OF_PERICENTER":"47.5976","MEAN_ELEMENT_THEORY":"SGP4","MEAN_ANOMALY":"312.5151","SITE":"AFETR","SEMIMAJOR_AXIS":"6917.899","TIME_SYSTEM":"UTC","ECCENTRICITY":"0.00015930","FILE":"3582616","TLE_LINE2":"2 51716  53.2153 234.8542 0001593  47.5976 312.5151 15.08834007 32891","REV_AT_EPOCH":"3289","MEAN_MOTION_DOT":"-0.00000012","COUNTRY_CODE":"US","INCLINATION":"53.2153","MEAN_MOTION_DDOT":"0.0000000000000","APOAPSIS":"540.866","OBJECT_ID":"2022-016C","ELEMENT_SET_NO":"999","REF_FRAME":"TEME","DECAY_DATE":null,"RA_OF_ASC_NODE":"234.8542","RCS_SIZE":"LARGE","EPHEMERIS_TYPE":"0","GP_ID":"213405306","NORAD_CAT_ID":"51716"},{"RA_OF_ASC_NODE":"234.2748","EPHEMERIS_TYPE":"0","RCS_SIZE":"LARGE","NORAD_CAT_ID":"51717","GP_ID":"213406558","INCLINATION":"53.2152","COUNTRY_CODE":"US","OBJECT_ID":"2022-016D","ELEMENT_SET_NO":"999","MEAN_MOTION_DDOT":"0.0000000000000","APOAPSIS":"541.367","DECAY_DATE":null,"REF_FRAME":"TEME","TIME_SYSTEM":"UTC","SEMIMAJOR_AXIS":"6917.856","FILE":"3582616","TLE_LINE2":"2 51717  53.2152 234.2748 0002380  44.9487 315.1698 15.08848126 32911","ECCENTRICITY":"0.00023800","MEAN_MOTION_DOT":"0.00002252","REV_AT_EPOCH":"3291","CLASSIFICATION_TYPE":"U","BSTAR":"0.00015954000000","OBJECT_TYPE":"PAYLOAD","MEAN_MOTION":"15.08848126","LAUNCH_DATE":"2022-02-21","OBJECT_NAME":"STARLINK-3445","TLE_LINE1":"1 51717U 22016D   22267.73366189  .00002252  00000-0  15954-3 0  9992","EPOCH":"2022-09-24T17:36:28.387296","MEAN_ELEMENT_THEORY":"SGP4","PERIOD":"95.437","CENTER_NAME":"EARTH","ARG_OF_PERICENTER":"44.9487","MEAN_ANOMALY":"315.1698","PERIAPSIS":"538.074","SITE":"AFETR"},{"RA_OF_ASC_NODE":"234.3162","EPHEMERIS_TYPE":"0","RCS_SIZE":"LARGE","NORAD_CAT_ID":"51718","GP_ID":"213406308","INCLINATION":"53.2158","COUNTRY_CODE":"US","ELEMENT_SET_NO":"999","OBJECT_ID":"2022-016E","MEAN_MOTION_DDOT":"0.0000000000000","APOAPSIS":"541.121","REF_FRAME":"TEME","DECAY_DATE":null,"TIME_SYSTEM":"UTC","SEMIMAJOR_AXIS":"6917.833","FILE":"3582616","TLE_LINE2":"2 51718  53.2158 234.3162 0002056  47.4762 312.6404 15.08855414 34033","ECCENTRICITY":"0.00020560","MEAN_MOTION_DOT":"0.00004854","REV_AT_EPOCH":"3403","CLASSIFICATION_TYPE":"U","BSTAR":"0.00032274000000","OBJECT_TYPE":"PAYLOAD","MEAN_MOTION":"15.08855414","LAUNCH_DATE":"2022-02-21","OBJECT_NAME":"STARLINK-3546","TLE_LINE1":"1 51718U 22016E   22267.71894359  .00004854  00000-0  32274-3 0  9990","EPOCH":"2022-09-24T17:15:16.726176","MEAN_ELEMENT_THEORY":"SGP4","PERIOD":"95.437","CENTER_NAME":"EARTH","ARG_OF_PERICENTER":"47.4762","MEAN_ANOMALY":"312.6404","PERIAPSIS":"538.276","SITE":"AFETR"},{"DECAY_DATE":null,"REF_FRAME":"TEME","APOAPSIS":"541.055","MEAN_MOTION_DDOT":"0.0000000000000","ELEMENT_SET_NO":"999","OBJECT_ID":"2022-016F","COUNTRY_CODE":"US","INCLINATION":"53.2164","GP_ID":"213371660","NORAD_CAT_ID":"51719","RCS_SIZE":"LARGE","EPHEMERIS_TYPE":"0","RA_OF_ASC_NODE":"236.0893","SITE":"AFETR","PERIAPSIS":"538.438","PERIOD":"95.438","ARG_OF_PERICENTER":"51.5831","MEAN_ELEMENT_THEORY":"SGP4","CENTER_NAME":"EARTH","MEAN_ANOMALY":"308.5331","TLE_LINE1":"1 51719U 22016F   22267.32887311  .00001062  00000-0  84829-4 0  9990","EPOCH":"2022-09-24T07:53:34.636704","OBJECT_NAME":"STARLINK-3540","LAUNCH_DATE":"2022-02-21","MEAN_MOTION":"15.08839666","OBJECT_TYPE":"PAYLOAD","BSTAR":"0.00008482900000","CLASSIFICATION_TYPE":"U","REV_AT_EPOCH":"3285","MEAN_MOTION_DOT":"0.00001062","ECCENTRICITY":"0.00018920","TLE_LINE2":"2 51719  53.2164 236.0893 0001892  51.5831 308.5331 15.08839666 32853","FILE":"3582188","SEMIMAJOR_AXIS":"6917.881","TIME_SYSTEM":"UTC"},{"REV_AT_EPOCH":"3289","MEAN_MOTION_DOT":"0.00002222","ECCENTRICITY":"0.00021300","TLE_LINE2":"2 51720  53.2156 234.6322 0002130  48.0396 312.0778 15.08853884 32897","FILE":"3582616","SEMIMAJOR_AXIS":"6917.838","TIME_SYSTEM":"UTC","SITE":"AFETR","PERIAPSIS":"538.229","PERIOD":"95.437","CENTER_NAME":"EARTH","MEAN_ELEMENT_THEORY":"SGP4","MEAN_ANOMALY":"312.0778","ARG_OF_PERICENTER":"48.0396","EPOCH":"2022-09-24T15:34:35.685696","TLE_LINE1":"1 51720U 22016G   22267.64902414  .00002222  00000-0  15759-3 0  9993","OBJECT_NAME":"STARLINK-3526","LAUNCH_DATE":"2022-02-21","MEAN_MOTION":"15.08853884","OBJECT_TYPE":"PAYLOAD","BSTAR":"0.00015759000000","CLASSIFICATION_TYPE":"U","GP_ID":"213405807","NORAD_CAT_ID":"51720","RCS_SIZE":"LARGE","EPHEMERIS_TYPE":"0","RA_OF_ASC_NODE":"234.6322","DECAY_DATE":null,"REF_FRAME":"TEME","MEAN_MOTION_DDOT":"0.0000000000000","APOAPSIS":"541.176","ELEMENT_SET_NO":"999","OBJECT_ID":"2022-016G","COUNTRY_CODE":"US","INCLINATION":"53.2156"},{"TLE_LINE1":"1 51721U 22016H   22267.19271095  .00000254  00000-0  34088-4 0  9998","EPOCH":"2022-09-24T04:37:30.226080","OBJECT_NAME":"STARLINK-3524","LAUNCH_DATE":"2022-02-21","MEAN_MOTION":"15.08839253","OBJECT_TYPE":"PAYLOAD","BSTAR":"0.00003408800000","CLASSIFICATION_TYPE":"U","SITE":"AFETR","PERIAPSIS":"538.375","MEAN_ANOMALY":"319.8077","PERIOD":"95.438","MEAN_ELEMENT_THEORY":"SGP4","CENTER_NAME":"EARTH","ARG_OF_PERICENTER":"40.3062","ECCENTRICITY":"0.00019840","TLE_LINE2":"2 51721  53.2145 236.6976 0001984  40.3062 319.8077 15.08839253 32839","FILE":"3582188","SEMIMAJOR_AXIS":"6917.883","TIME_SYSTEM":"UTC","REV_AT_EPOCH":"3283","MEAN_MOTION_DOT":"0.00000254","APOAPSIS":"541.120","MEAN_MOTION_DDOT":"0.0000000000000","ELEMENT_SET_NO":"999","OBJECT_ID":"2022-016H","COUNTRY_CODE":"US","INCLINATION":"53.2145","REF_FRAME":"TEME","DECAY_DATE":null,"RA_OF_ASC_NODE":"236.6976","GP_ID":"213371158","NORAD_CAT_ID":"51721","RCS_SIZE":"LARGE","EPHEMERIS_TYPE":"0"},{"LAUNCH_DATE":"2022-02-21","TLE_LINE1":"1 51722U 22016J   22267.64166400  .00002071  00000-0  14819-3 0  9990","EPOCH":"2022-09-24T15:23:59.769600","OBJECT_NAME":"STARLINK-3535","BSTAR":"0.00014819000000","CLASSIFICATION_TYPE":"U","MEAN_MOTION":"15.08845087","OBJECT_TYPE":"PAYLOAD","SITE":"AFETR","PERIOD":"95.437","MEAN_ELEMENT_THEORY":"SGP4","MEAN_ANOMALY":"303.2379","CENTER_NAME":"EARTH","ARG_OF_PERICENTER":"56.8788","PERIAPSIS":"538.472","TLE_LINE2":"2 51722  53.2177 234.6669 0001818  56.8788 303.2379 15.08845087 32895","FILE":"3582616","ECCENTRICITY":"0.00018180","SEMIMAJOR_AXIS":"6917.865","TIME_SYSTEM":"UTC","REV_AT_EPOCH":"3289","MEAN_MOTION_DOT":"0.00002071","ELEMENT_SET_NO":"999","OBJECT_ID":"2022-016J","MEAN_MOTION_DDOT":"0.0000000000000","APOAPSIS":"540.988","INCLINATION":"53.2177","COUNTRY_CODE":"US","DECAY_DATE":null,"REF_FRAME":"TEME","RA_OF_ASC_NODE":"234.6669","NORAD_CAT_ID":"51722","GP_ID":"213406809","RCS_SIZE":"LARGE","EPHEMERIS_TYPE":"0"},{"REV_AT_EPOCH":"3410","MEAN_MOTION_DOT":"-0.00048815","ECCENTRICITY":"0.00065680","FILE":"3582616","TLE_LINE2":"2 51723  53.2180 149.8185 0006568 271.2735  88.7534 15.75071526 34109","SEMIMAJOR_AXIS":"6722.565","TIME_SYSTEM":"UTC","SITE":"AFETR","PERIAPSIS":"340.014","PERIOD":"91.424","CENTER_NAME":"EARTH","MEAN_ELEMENT_THEORY":"SGP4","MEAN_ANOMALY":"88.7534","ARG_OF_PERICENTER":"271.2735","TLE_LINE1":"1 51723U 22016K   22267.84241848 -.00048815  00000-0 -31792-3 0  9990","EPOCH":"2022-09-24T20:13:04.956672","OBJECT_NAME":"STARLINK-3531","LAUNCH_DATE":"2022-02-21","MEAN_MOTION":"15.75071526","OBJECT_TYPE":"PAYLOAD","BSTAR":"-0.00031792000000","CLASSIFICATION_TYPE":"U","GP_ID":"213405057","NORAD_CAT_ID":"51723","RCS_SIZE":"LARGE","EPHEMERIS_TYPE":"0","RA_OF_ASC_NODE":"149.8185","REF_FRAME":"TEME","DECAY_DATE":null,"MEAN_MOTION_DDOT":"0.0000000000000","APOAPSIS":"348.845","OBJECT_ID":"2022-016K","ELEMENT_SET_NO":"999","COUNTRY_CODE":"US","INCLINATION":"53.2180"}];
